FENGYUN 1C DEB          
1 37018U 99025EDA 17343.25990986  .00001135  00000-0  56980-3 0  9991
2 37018  98.5082 344.5412 0353456 239.6948 116.8807 13.90630204486505
